TimeCST,TemperatureF,Dew PointF,Humidity,Sea Level PressureIn,VisibilityMPH,Wind Direction,Wind SpeedMPH,Gust SpeedMPH,PrecipitationIn,Events,Conditions,WindDirDegrees,DateUTC
12:23 AM,48.2,46.4,93,29.48,3.0,NE,17.3,-,0.00,Rain-Thunderstorm,Light Thunderstorms and Rain,40,2010-03-13 06:23:00
12:51 AM,46.9,46.0,97,29.48,3.0,NE,19.6,31.1,0.06,Rain-Thunderstorm,Thunderstorms and Rain,40,2010-03-13 06:51:00
1:13 AM,46.4,44.6,93,29.47,3.0,NNE,15.0,-,0.05,Rain,Light Rain,30,2010-03-13 07:13:00
1:51 AM,46.9,45.0,93,29.45,3.0,NNE,18.4,-,0.14,Rain,Light Rain,30,2010-03-13 07:51:00
2:12 AM,46.4,44.6,93,29.44,2.5,NNE,17.3,-,N/A,Rain,Rain,30,2010-03-13 08:12:00
2:51 AM,46.9,45.0,93,29.45,2.5,ENE,23.0,31.1,0.14,Rain,Rain,60,2010-03-13 08:51:00
3:04 AM,46.4,44.6,93,29.44,2.0,ENE,23.0,35.7,0.03,Rain,Rain,60,2010-03-13 09:04:00
3:47 AM,46.4,44.6,93,29.44,2.0,ENE,23.0,31.1,0.06,Rain,Light Rain,60,2010-03-13 09:47:00
3:51 AM,46.0,44.1,93,29.45,2.0,ENE,18.4,31.1,0.06,Rain,Light Rain,60,2010-03-13 09:51:00
4:51 AM,45.0,43.0,93,29.47,2.5,ENE,15.0,24.2,0.00,Rain,Light Rain,60,2010-03-13 10:51:00
5:51 AM,45.0,43.0,93,29.48,2.0,ENE,12.7,-,0.00,Rain,Light Rain,70,2010-03-13 11:51:00
6:51 AM,44.1,43.0,96,29.50,2.0,ENE,11.5,-,0.02,Rain,Light Rain,60,2010-03-13 12:51:00
7:51 AM,45.0,43.0,93,29.51,2.0,ENE,11.5,-,0.01,Rain,Light Rain,60,2010-03-13 13:51:00
8:51 AM,46.0,44.1,93,29.51,2.0,ENE,11.5,-,0.00,Rain,Light Rain,70,2010-03-13 14:51:00
9:23 AM,46.4,44.6,93,29.50,1.0,ENE,10.4,-,0.00,,Light Drizzle,60,2010-03-13 15:23:00
9:51 AM,46.0,45.0,96,29.51,1.2,ENE,11.5,-,0.01,Rain,Light Rain,70,2010-03-13 15:51:00
10:51 AM,46.9,45.0,93,29.52,2.0,ENE,15.0,-,0.00,Rain,Light Rain,60,2010-03-13 16:51:00
11:30 AM,46.4,44.6,93,29.51,1.8,ENE,17.3,-,0.00,,Light Drizzle,60,2010-03-13 17:30:00
11:51 AM,46.9,45.0,93,29.52,1.2,ENE,17.3,-,0.01,Rain,Light Rain,60,2010-03-13 17:51:00
12:06 PM,46.4,44.6,93,29.51,2.0,ENE,13.8,-,0.00,Rain,Light Rain,60,2010-03-13 18:06:00
12:12 PM,46.4,44.6,93,29.51,3.0,NE,15.0,-,0.00,Rain,Light Rain,50,2010-03-13 18:12:00
12:20 PM,46.4,44.6,93,29.51,4.0,NE,15.0,-,0.00,,Overcast,50,2010-03-13 18:20:00
12:34 PM,46.4,44.6,93,29.50,3.0,NE,16.1,-,0.01,Rain,Light Rain,50,2010-03-13 18:34:00
12:51 PM,46.0,44.1,93,29.51,3.0,North,9.2,-,0.01,Rain,Light Rain,10,2010-03-13 18:51:00
1:51 PM,46.9,44.1,90,29.52,5.0,NNE,11.5,-,0.00,Rain,Light Rain,30,2010-03-13 19:51:00
2:02 PM,46.4,42.8,87,29.51,2.0,NNE,15.0,-,0.01,Rain,Light Rain,20,2010-03-13 20:02:00
2:10 PM,44.6,42.8,93,29.51,4.0,NNE,13.8,-,0.01,,Overcast,30,2010-03-13 20:10:00
2:17 PM,46.4,42.8,87,29.51,5.0,NNE,15.0,21.9,0.01,Rain,Light Rain,30,2010-03-13 20:17:00
2:51 PM,44.1,41.0,89,29.53,2.0,NNE,19.6,-,0.01,Rain,Light Rain,30,2010-03-13 20:51:00
2:55 PM,44.6,41.0,87,29.52,1.2,NNE,18.4,26.5,0.00,Rain,Light Rain,30,2010-03-13 20:55:00
3:51 PM,43.0,41.0,93,29.55,1.0,NNE,17.3,-,0.03,Rain,Light Rain,20,2010-03-13 21:51:00
4:51 PM,43.0,41.0,93,29.56,1.0,NNE,17.3,25.3,0.01,Rain,Light Rain,30,2010-03-13 22:51:00
5:51 PM,43.0,41.0,93,29.57,1.2,NNE,15.0,-,0.01,Rain,Light Rain,30,2010-03-13 23:51:00
6:51 PM,43.0,41.0,93,29.58,2.0,NNE,17.3,-,0.01,Rain,Light Rain,30,2010-03-14 00:51:00
7:07 PM,42.8,41.0,93,29.57,2.0,NNE,17.3,23.0,0.00,Rain,Light Rain,30,2010-03-14 01:07:00
7:51 PM,43.0,41.0,93,29.60,2.0,NE,18.4,24.2,0.00,Rain,Light Rain,40,2010-03-14 01:51:00
8:03 PM,42.8,41.0,93,29.59,1.5,NE,17.3,-,0.00,Rain,Light Rain,40,2010-03-14 02:03:00
8:11 PM,42.8,41.0,93,29.59,1.5,NE,18.4,24.2,0.00,Rain,Light Rain,40,2010-03-14 02:11:00
8:51 PM,43.0,41.0,93,29.62,2.0,NNE,13.8,-,0.01,Rain,Light Rain,30,2010-03-14 02:51:00
9:13 PM,42.8,39.2,87,29.61,7.0,NNE,16.1,-,0.00,Rain,Light Rain,30,2010-03-14 03:13:00
9:26 PM,42.8,39.2,87,29.61,9.0,NNE,17.3,-,0.00,,Overcast,30,2010-03-14 03:26:00
9:51 PM,43.0,39.9,89,29.63,4.0,NE,18.4,-,0.00,Rain,Light Rain,40,2010-03-14 03:51:00
10:42 PM,42.8,39.2,87,29.62,2.0,NNE,17.3,-,0.00,Rain,Light Rain,30,2010-03-14 04:42:00
10:51 PM,42.1,39.9,92,29.64,2.0,NE,16.1,-,0.00,Rain,Light Rain,40,2010-03-14 04:51:00
11:51 PM,41.0,39.0,93,29.65,2.0,NNE,16.1,-,0.00,Rain,Light Rain,30,2010-03-14 05:51:00
