TimeCST,TemperatureF,Dew PointF,Humidity,Sea Level PressureIn,VisibilityMPH,Wind Direction,Wind SpeedMPH,Gust SpeedMPH,PrecipitationIn,Events,Conditions,WindDirDegrees,DateUTC
12:51 AM,35.1,28.0,76,29.74,7.0,East,16.1,-,N/A,,Overcast,80,2007-03-01 06:51:00
1:51 AM,35.1,28.0,76,29.68,7.0,East,16.1,-,N/A,,Overcast,80,2007-03-01 07:51:00
2:33 AM,35.6,30.2,81,29.58,5.0,East,17.3,-,N/A,Thunderstorm,Unknown,80,2007-03-01 08:33:00
2:51 AM,35.1,28.9,78,29.60,6.0,East,17.3,23.0,0.01,Rain,Light Rain,80,2007-03-01 08:51:00
3:15 AM,35.6,30.2,81,29.57,6.0,NE,10.4,-,0.00,Rain-Thunderstorm,Light Thunderstorms and Rain,40,2007-03-01 09:15:00
3:51 AM,34.0,30.0,85,29.59,5.0,NE,12.7,-,0.03,Rain-Thunderstorm,Light Thunderstorms and Rain,50,2007-03-01 09:51:00
4:01 AM,35.6,30.2,81,29.55,5.0,ENE,13.8,-,0.00,Rain,Light Rain,70,2007-03-01 10:01:00
4:17 AM,33.8,30.2,87,29.53,2.5,NE,15.0,-,0.04,Rain,Rain,50,2007-03-01 10:17:00
4:29 AM,33.8,30.2,87,29.52,2.5,ENE,15.0,-,0.07,Rain,Rain,70,2007-03-01 10:29:00
4:51 AM,34.0,30.9,89,29.53,4.0,ENE,16.1,-,0.07,Rain,Light Rain,70,2007-03-01 10:51:00
5:51 AM,35.1,33.1,92,29.51,5.0,East,13.8,-,0.00,,Overcast,80,2007-03-01 11:51:00
6:51 AM,35.1,35.1,100,29.55,3.0,East,9.2,-,0.03,Rain-Thunderstorm,Light Thunderstorms and Rain,80,2007-03-01 12:51:00
6:54 AM,35.6,35.6,100,29.51,2.5,East,9.2,-,0.00,Rain-Thunderstorm,Light Thunderstorms and Rain,80,2007-03-01 12:54:00
7:24 AM,35.6,33.8,93,29.45,3.0,ENE,16.1,-,0.02,Rain,Light Rain,70,2007-03-01 13:24:00
7:51 AM,36.0,35.1,97,29.44,4.0,ENE,15.0,24.2,0.02,,Mostly Cloudy,70,2007-03-01 13:51:00
8:51 AM,37.9,37.0,97,29.45,4.0,ESE,10.4,-,N/A,,Overcast,110,2007-03-01 14:51:00
9:51 AM,39.9,36.0,86,29.44,4.0,SE,6.9,-,0.01,Rain,Light Rain,130,2007-03-01 15:51:00
10:04 AM,39.2,35.6,87,29.43,4.0,Variable,5.8,-,0.00,,Overcast,0,2007-03-01 16:04:00
10:51 AM,39.9,37.9,93,29.40,2.5,ESE,12.7,-,0.09,Rain,Light Rain,120,2007-03-01 16:51:00
11:03 AM,39.2,39.2,100,29.32,2.0,East,17.3,-,0.02,Rain,Light Rain,100,2007-03-01 17:03:00
11:48 AM,42.8,41.0,93,29.30,3.0,ESE,17.3,21.9,0.03,Rain,Light Rain,120,2007-03-01 17:48:00
11:51 AM,42.1,41.0,96,29.30,3.0,ESE,16.1,21.9,0.03,Rain,Light Rain,110,2007-03-01 17:51:00
12:18 PM,42.8,41.0,93,29.26,2.0,ESE,15.0,-,0.02,Rain,Light Rain,120,2007-03-01 18:18:00
12:37 PM,42.8,42.8,100,29.21,2.0,East,18.4,-,0.03,Rain,Light Rain,100,2007-03-01 18:37:00
12:51 PM,43.0,43.0,100,29.24,2.0,ESE,21.9,-,0.03,,Overcast,120,2007-03-01 18:51:00
1:41 PM,39.2,39.2,100,29.16,1.2,East,20.7,25.3,N/A,,Overcast,100,2007-03-01 19:41:00
1:51 PM,39.9,39.9,100,29.19,1.2,East,16.1,-,N/A,,Overcast,100,2007-03-01 19:51:00
2:39 PM,42.8,42.8,100,29.12,0.8,ESE,15.0,20.7,N/A,,Overcast,120,2007-03-01 20:39:00
2:51 PM,44.1,44.1,100,29.13,1.0,ESE,15.0,24.2,N/A,,Overcast,120,2007-03-01 20:51:00
3:26 PM,46.4,46.4,100,29.14,1.8,South,19.6,25.3,0.04,Rain,Light Rain,190,2007-03-01 21:26:00
3:32 PM,46.4,46.4,100,29.12,7.0,SSE,10.4,25.3,0.04,Rain,Light Rain,160,2007-03-01 21:32:00
3:57 PM,46.4,46.4,100,29.11,4.0,SSE,11.5,-,0.05,Rain,Light Rain,150,2007-03-01 21:57:00
4:10 PM,46.4,46.4,100,29.11,5.0,SSE,13.8,-,0.05,,Overcast,160,2007-03-01 22:10:00
4:19 PM,48.2,46.4,93,29.10,5.0,SSE,13.8,-,0.05,,Overcast,160,2007-03-01 22:19:00
4:51 PM,46.9,46.0,97,29.13,10.0,South,12.7,-,0.05,,Mostly Cloudy,190,2007-03-01 22:51:00
5:51 PM,45.0,42.1,90,29.15,10.0,SW,19.6,25.3,0.00,,Mostly Cloudy,220,2007-03-01 23:51:00
6:22 PM,42.8,33.8,70,29.15,10.0,SSW,16.1,19.6,N/A,,Overcast,210,2007-03-02 00:22:00
6:51 PM,39.9,30.9,70,29.18,10.0,SW,18.4,31.1,N/A,,Overcast,220,2007-03-02 00:51:00
7:30 PM,37.4,30.2,75,29.17,10.0,SW,16.1,27.6,N/A,,Overcast,220,2007-03-02 01:30:00
7:51 PM,37.0,28.0,70,29.19,10.0,SW,17.3,24.2,N/A,,Overcast,220,2007-03-02 01:51:00
8:51 PM,36.0,28.0,73,29.19,10.0,SSW,11.5,24.2,N/A,,Overcast,200,2007-03-02 02:51:00
9:51 PM,35.1,27.0,72,29.18,10.0,SSW,17.3,23.0,N/A,,Overcast,210,2007-03-02 03:51:00
10:51 PM,34.0,26.1,73,29.18,10.0,SW,18.4,26.5,0.00,Snow,Light Snow,220,2007-03-02 04:51:00
11:51 PM,33.1,26.1,75,29.16,6.0,SSW,18.4,26.5,0.00,Snow,Light Snow,200,2007-03-02 05:51:00
