TimeCST,TemperatureF,Dew PointF,Humidity,Sea Level PressureIn,VisibilityMPH,Wind Direction,Wind SpeedMPH,Gust SpeedMPH,PrecipitationIn,Events,Conditions,WindDirDegrees,DateUTC
12:00 AM,48.9,37.9,66,30.02,10.0,Calm,Calm,-,N/A,,Overcast,0,1993-11-24 06:00:00
1:00 AM,47.8,36.9,66,30.02,10.0,Calm,Calm,-,N/A,,Overcast,0,1993-11-24 07:00:00
2:00 AM,45.0,41.0,86,30.03,7.0,North,9.2,-,N/A,,Overcast,10,1993-11-24 08:00:00
3:00 AM,43.9,41.9,93,30.03,6.0,North,11.5,-,N/A,Fog-Rain,Light Rain,360,1993-11-24 09:00:00
4:00 AM,43.0,41.0,93,30.04,5.0,NE,12.7,-,N/A,Fog-Rain,Light Rain,40,1993-11-24 10:00:00
5:00 AM,41.9,41.0,97,30.06,5.0,North,11.5,-,N/A,Fog,Fog,10,1993-11-24 11:00:00
6:00 AM,41.9,39.9,93,30.08,4.0,NNE,13.8,-,N/A,Fog-Rain,Light Rain,20,1993-11-24 12:00:00
7:00 AM,41.9,38.8,89,30.09,4.0,NE,17.3,-,N/A,Fog-Rain,Light Rain Showers,40,1993-11-24 13:00:00
8:00 AM,41.9,39.9,93,30.10,5.0,NE,13.8,-,N/A,Fog,Fog,50,1993-11-24 14:00:00
9:00 AM,43.0,41.0,93,30.11,4.0,NE,17.3,-,N/A,Fog,Fog,40,1993-11-24 15:00:00
10:00 AM,43.9,41.0,90,30.13,4.0,NE,11.5,-,N/A,Fog,Fog,50,1993-11-24 16:00:00
11:00 AM,45.0,41.0,86,30.14,4.0,NE,13.8,-,N/A,Fog,Fog,40,1993-11-24 17:00:00
12:00 PM,43.9,41.9,93,30.14,4.0,NE,12.7,-,N/A,Fog-Rain,Light Rain Showers,50,1993-11-24 18:00:00
1:00 PM,43.9,41.9,93,30.14,3.0,ENE,17.3,-,N/A,Fog-Rain,Light Rain Showers,60,1993-11-24 19:00:00
2:00 PM,43.0,41.0,93,30.14,5.0,ENE,17.3,-,N/A,Fog-Rain,Light Rain Showers,60,1993-11-24 20:00:00
3:00 PM,41.9,41.0,97,30.16,4.0,ENE,17.3,-,N/A,Fog-Rain,Light Rain Showers,60,1993-11-24 21:00:00
4:00 PM,41.9,41.0,97,30.20,5.0,NE,11.5,23.0,N/A,Fog-Rain,Light Rain,50,1993-11-24 22:00:00
5:00 PM,41.9,39.9,93,30.23,4.0,ENE,17.3,-,N/A,Fog-Rain,Light Rain,60,1993-11-24 23:00:00
6:00 PM,41.0,39.9,96,30.25,5.0,NE,20.7,-,N/A,Fog-Rain,Light Rain,50,1993-11-25 00:00:00
7:00 PM,39.9,37.9,93,30.27,5.0,ENE,17.3,-,N/A,Fog-Rain,Light Rain,60,1993-11-25 01:00:00
8:00 PM,39.9,36.9,89,30.27,7.0,ENE,11.5,23.0,N/A,,Overcast,60,1993-11-25 02:00:00
9:00 PM,38.8,36.0,89,30.28,7.0,ENE,11.5,23.0,N/A,,Overcast,60,1993-11-25 03:00:00
10:00 PM,38.8,36.0,89,30.28,7.0,ENE,17.3,-,N/A,,Overcast,60,1993-11-25 04:00:00
