TimeCST,TemperatureF,Dew PointF,Humidity,Sea Level PressureIn,VisibilityMPH,Wind Direction,Wind SpeedMPH,Gust SpeedMPH,PrecipitationIn,Events,Conditions,WindDirDegrees,DateUTC
12:07 AM,28.4,24.8,86,29.86,2.5,ENE,9.2,-,0.00,Snow,Light Freezing Drizzle,70,2004-02-06 06:07:00
12:25 AM,26.6,24.8,93,29.85,1.5,ENE,5.8,-,0.00,Snow,Light Freezing Drizzle,60,2004-02-06 06:25:00
12:34 AM,26.6,24.8,93,29.85,1.5,ENE,5.8,-,0.00,Snow,Light Freezing Drizzle,70,2004-02-06 06:34:00
12:43 AM,26.6,26.6,100,29.85,1.5,East,6.9,-,0.00,Snow,Light Freezing Drizzle,90,2004-02-06 06:43:00
12:56 AM,27.0,26.1,96,29.86,1.5,ENE,6.9,-,0.00,Snow,Light Freezing Drizzle,70,2004-02-06 06:56:00
1:10 AM,26.6,26.6,100,29.83,2.0,NE,6.9,-,0.00,Snow,Light Freezing Drizzle,50,2004-02-06 07:10:00
1:25 AM,26.6,26.6,100,29.83,2.0,ENE,4.6,-,0.00,Snow,Light Freezing Drizzle,60,2004-02-06 07:25:00
1:44 AM,28.4,26.6,93,29.83,1.5,NE,3.5,-,0.00,Snow,Light Freezing Drizzle,50,2004-02-06 07:44:00
1:56 AM,27.0,25.0,92,29.85,1.2,ENE,3.5,-,0.00,Snow,Light Snow,60,2004-02-06 07:56:00
2:17 AM,26.6,26.6,100,29.82,1.2,North,3.5,-,0.00,Snow,Light Snow,360,2004-02-06 08:17:00
2:28 AM,26.6,26.6,100,29.82,1.5,Calm,Calm,-,0.00,Snow,Light Snow,0,2004-02-06 08:28:00
2:35 AM,26.6,26.6,100,29.81,2.0,NNE,3.5,-,0.00,Snow,Light Snow,30,2004-02-06 08:35:00
2:47 AM,26.6,26.6,100,29.80,2.5,NE,3.5,-,0.00,Snow,Light Snow,50,2004-02-06 08:47:00
2:56 AM,28.0,27.0,96,29.82,4.0,NNE,3.5,-,0.00,Snow,Light Snow,30,2004-02-06 08:56:00
3:56 AM,28.0,26.1,92,29.83,5.0,NNW,3.5,-,0.00,Snow,Light Snow,340,2004-02-06 09:56:00
4:13 AM,28.4,26.6,93,29.80,4.0,Calm,Calm,-,0.00,Snow,Light Snow,0,2004-02-06 10:13:00
4:27 AM,28.4,26.6,93,29.80,4.0,WSW,3.5,-,0.00,Snow,Light Snow,250,2004-02-06 10:27:00
4:48 AM,28.4,26.6,93,29.81,5.0,West,3.5,-,0.00,,Overcast,260,2004-02-06 10:48:00
4:56 AM,28.0,27.0,96,29.84,5.0,WSW,4.6,-,0.00,,Overcast,250,2004-02-06 10:56:00
5:56 AM,28.0,26.1,92,29.84,5.0,West,6.9,-,N/A,,Overcast,270,2004-02-06 11:56:00
6:11 AM,28.4,26.6,93,29.81,6.0,West,6.9,-,N/A,,Overcast,260,2004-02-06 12:11:00
6:56 AM,27.0,25.0,92,29.83,8.0,West,6.9,-,N/A,,Overcast,260,2004-02-06 12:56:00
7:56 AM,28.0,26.1,92,29.83,6.0,West,10.4,-,N/A,,Overcast,270,2004-02-06 13:56:00
8:13 AM,28.4,24.8,86,29.83,7.0,West,9.2,-,N/A,,Overcast,280,2004-02-06 14:13:00
8:56 AM,28.0,26.1,92,29.88,6.0,West,9.2,-,N/A,,Overcast,260,2004-02-06 14:56:00
9:11 AM,28.4,24.8,86,29.86,5.0,West,8.1,-,N/A,,Mostly Cloudy,260,2004-02-06 15:11:00
9:56 AM,28.9,25.0,85,29.89,6.0,West,11.5,-,N/A,,Overcast,260,2004-02-06 15:56:00
10:22 AM,28.4,24.8,86,29.87,9.0,West,10.4,-,N/A,,Overcast,270,2004-02-06 16:22:00
10:56 AM,30.0,24.1,79,29.88,10.0,West,13.8,-,N/A,,Mostly Cloudy,280,2004-02-06 16:56:00
11:56 AM,28.9,21.9,75,29.86,10.0,NW,12.7,-,N/A,,Mostly Cloudy,310,2004-02-06 17:56:00
12:56 PM,28.9,21.9,75,29.86,10.0,NW,11.5,-,N/A,,Overcast,310,2004-02-06 18:56:00
1:56 PM,28.9,21.9,75,29.87,10.0,WNW,9.2,-,N/A,,Overcast,300,2004-02-06 19:56:00
2:56 PM,28.0,19.9,72,29.88,10.0,WNW,8.1,-,N/A,,Overcast,290,2004-02-06 20:56:00
3:56 PM,28.0,21.9,78,29.88,10.0,West,8.1,-,N/A,,Overcast,260,2004-02-06 21:56:00
4:56 PM,28.9,23.0,78,29.88,10.0,WNW,8.1,-,N/A,,Overcast,300,2004-02-06 22:56:00
5:21 PM,28.4,21.2,74,29.86,10.0,West,9.2,-,N/A,,Overcast,280,2004-02-06 23:21:00
5:56 PM,27.0,21.9,81,29.89,10.0,NNW,10.4,-,0.00,Snow,Light Snow,330,2004-02-06 23:56:00
6:14 PM,28.4,23.0,80,29.87,10.0,NW,12.7,-,0.00,Snow,Light Snow,320,2004-02-07 00:14:00
6:56 PM,27.0,21.9,81,29.91,10.0,NNW,10.4,-,0.00,Snow,Light Snow,330,2004-02-07 00:56:00
7:35 PM,26.6,21.2,80,29.88,10.0,NNW,8.1,-,0.00,Snow,Light Snow,330,2004-02-07 01:35:00
7:56 PM,27.0,21.0,78,29.91,10.0,NNW,11.5,-,0.00,Snow,Light Snow,330,2004-02-07 01:56:00
8:19 PM,26.6,21.2,80,29.88,10.0,NNW,9.2,-,0.00,,Overcast,330,2004-02-07 02:19:00
8:56 PM,27.0,21.0,78,29.91,10.0,NW,10.4,-,0.00,,Overcast,320,2004-02-07 02:56:00
9:56 PM,26.1,21.9,84,29.91,10.0,NNW,9.2,-,N/A,,Overcast,330,2004-02-07 03:56:00
10:42 PM,26.6,21.2,80,29.88,10.0,NNW,8.1,-,N/A,,Overcast,340,2004-02-07 04:42:00
10:56 PM,27.0,21.9,81,29.91,10.0,NNW,11.5,-,N/A,,Overcast,330,2004-02-07 04:56:00
11:56 PM,27.0,21.0,78,29.92,10.0,NW,8.1,-,N/A,,Overcast,320,2004-02-07 05:56:00
