TimeCDT,TemperatureF,Dew PointF,Humidity,Sea Level PressureIn,VisibilityMPH,Wind Direction,Wind SpeedMPH,Gust SpeedMPH,PrecipitationIn,Events,Conditions,WindDirDegrees,DateUTC
12:07 AM,66.2,66.2,100,30.05,4.0,NE,6.9,-,N/A,,Overcast,40,2002-08-23 05:07:00
12:56 AM,66.9,66.9,100,30.03,5.0,ENE,5.8,-,N/A,,Overcast,70,2002-08-23 05:56:00
1:56 AM,68.0,68.0,100,30.02,5.0,NNE,4.6,-,N/A,,Overcast,20,2002-08-23 06:56:00
2:56 AM,68.0,68.0,100,30.01,6.0,Calm,Calm,-,N/A,,Overcast,0,2002-08-23 07:56:00
3:56 AM,68.0,68.0,100,30.01,4.0,North,5.8,-,N/A,,Overcast,10,2002-08-23 08:56:00
4:56 AM,68.0,68.0,100,30.00,3.0,North,4.6,-,N/A,,Overcast,350,2002-08-23 09:56:00
5:56 AM,68.0,68.0,100,30.00,3.0,Calm,Calm,-,0.02,Rain,Light Rain,0,2002-08-23 10:56:00
6:14 AM,68.0,68.0,100,30.00,1.5,NNE,4.6,-,0.02,Rain,Light Rain,20,2002-08-23 11:14:00
6:26 AM,68.0,68.0,100,30.00,1.5,North,3.5,-,0.02,Rain,Light Rain,10,2002-08-23 11:26:00
6:38 AM,68.0,68.0,100,30.01,1.5,North,3.5,-,0.02,Rain,Light Rain,10,2002-08-23 11:38:00
6:56 AM,69.1,69.1,100,30.02,1.5,Calm,Calm,-,0.02,Rain,Light Rain,0,2002-08-23 11:56:00
7:37 AM,69.8,69.8,100,30.02,1.5,Calm,Calm,-,0.02,Rain,Light Rain,0,2002-08-23 12:37:00
7:56 AM,69.1,69.1,100,29.99,1.5,Calm,Calm,-,0.02,,Overcast,0,2002-08-23 12:56:00
8:14 AM,69.8,69.8,100,29.98,2.5,Calm,Calm,-,N/A,,Overcast,0,2002-08-23 13:14:00
8:56 AM,71.1,71.1,100,29.95,2.5,ESE,8.1,-,N/A,,Overcast,110,2002-08-23 13:56:00
9:03 AM,71.6,71.6,100,29.96,2.5,SE,12.7,-,N/A,,Overcast,140,2002-08-23 14:03:00
9:56 AM,71.1,71.1,100,29.96,2.5,ENE,5.8,-,N/A,,Overcast,60,2002-08-23 14:56:00
10:25 AM,71.6,71.6,100,29.98,1.5,NE,5.8,-,N/A,,Overcast,40,2002-08-23 15:25:00
10:32 AM,71.6,71.6,100,29.98,1.2,ENE,5.8,-,0.01,,Light Drizzle,60,2002-08-23 15:32:00
10:56 AM,71.1,71.1,100,29.97,1.0,ENE,4.6,-,0.01,Rain,Light Rain,60,2002-08-23 15:56:00
11:20 AM,71.6,71.6,100,29.97,2.5,NE,5.8,-,0.00,Rain,Light Rain,40,2002-08-23 16:20:00
11:45 AM,71.6,71.6,100,29.96,5.0,East,5.8,-,0.00,Rain,Light Rain,90,2002-08-23 16:45:00
11:56 AM,73.0,72.0,96,29.96,6.0,ESE,5.8,-,0.00,,Overcast,120,2002-08-23 16:56:00
12:38 PM,73.4,71.6,94,29.97,10.0,East,5.8,-,N/A,,Overcast,90,2002-08-23 17:38:00
12:56 PM,73.0,72.0,96,29.96,10.0,Calm,Calm,-,N/A,,Overcast,0,2002-08-23 17:56:00
1:56 PM,73.0,72.0,96,29.95,5.0,NNE,4.6,-,0.00,Rain,Light Rain,30,2002-08-23 18:56:00
2:34 PM,73.4,71.6,94,29.94,5.0,North,3.5,-,0.00,Rain,Light Rain,350,2002-08-23 19:34:00
2:56 PM,73.9,72.0,93,29.92,5.0,Variable,4.6,-,0.00,Rain,Light Rain,0,2002-08-23 19:56:00
3:23 PM,75.2,71.6,89,29.92,10.0,NNE,6.9,-,0.00,Rain,Light Rain,20,2002-08-23 20:23:00
3:56 PM,75.9,72.0,87,29.91,9.0,NNW,5.8,-,0.00,Rain,Light Rain,330,2002-08-23 20:56:00
4:56 PM,78.1,72.0,81,29.90,6.0,North,9.2,-,0.00,,Haze,360,2002-08-23 21:56:00
5:03 PM,77.0,71.6,83,29.91,7.0,North,9.2,-,N/A,,Scattered Clouds,10,2002-08-23 22:03:00
5:31 PM,78.8,71.6,78,29.90,9.0,North,8.1,-,N/A,,Mostly Cloudy,360,2002-08-23 22:31:00
5:56 PM,75.0,72.0,90,29.89,9.0,NE,8.1,-,N/A,,Overcast,50,2002-08-23 22:56:00
6:12 PM,73.4,71.6,94,29.90,7.0,NE,8.1,-,N/A,,Overcast,50,2002-08-23 23:12:00
6:56 PM,73.0,70.0,90,29.89,6.0,ENE,6.9,-,N/A,,Mostly Cloudy,70,2002-08-23 23:56:00
7:56 PM,72.0,70.0,93,29.91,7.0,NE,6.9,-,N/A,,Mostly Cloudy,40,2002-08-24 00:56:00
8:56 PM,72.0,70.0,93,29.92,7.0,Variable,5.8,-,N/A,,Mostly Cloudy,0,2002-08-24 01:56:00
9:00 PM,71.6,69.8,94,29.92,7.0,ENE,6.9,-,N/A,,Overcast,60,2002-08-24 02:00:00
9:48 PM,71.6,69.8,94,29.93,7.0,East,4.6,-,N/A,,Scattered Clouds,80,2002-08-24 02:48:00
9:56 PM,71.1,70.0,96,29.92,7.0,East,6.9,-,N/A,,Partly Cloudy,80,2002-08-24 02:56:00
10:14 PM,71.6,69.8,94,29.92,6.0,NNE,3.5,-,N/A,,Mostly Cloudy,30,2002-08-24 03:14:00
10:29 PM,71.6,69.8,94,29.92,6.0,NE,3.5,-,N/A,,Mostly Cloudy,40,2002-08-24 03:29:00
10:56 PM,69.1,69.1,100,29.91,6.0,Calm,Calm,-,N/A,,Mostly Cloudy,0,2002-08-24 03:56:00
11:56 PM,68.0,68.0,100,29.91,4.0,Calm,Calm,-,N/A,,Overcast,0,2002-08-24 04:56:00
