TimeCST,TemperatureF,Dew PointF,Humidity,Sea Level PressureIn,VisibilityMPH,Wind Direction,Wind SpeedMPH,Gust SpeedMPH,PrecipitationIn,Events,Conditions,WindDirDegrees,DateUTC
12:00 AM,18.0,10.9,74,30.46,10.0,South,5.8,-,N/A,,Scattered Clouds,180,1994-02-28 06:00:00
1:00 AM,19.0,10.9,71,30.45,10.0,South,9.2,-,N/A,,Unknown,170,1994-02-28 07:00:00
2:00 AM,19.9,10.9,68,30.46,10.0,SSE,8.1,-,N/A,,Mostly Cloudy,160,1994-02-28 08:00:00
3:00 AM,19.9,10.9,68,30.45,10.0,SSE,5.8,-,N/A,,Overcast,160,1994-02-28 09:00:00
4:00 AM,19.9,14.0,78,30.45,10.5,SE,8.1,-,N/A,Snow,Light Snow,140,1994-02-28 10:00:00
4:23 AM,-9999,-9999,N/A,30.41,10.5,South,6.9,-,N/A,Fog,Unknown,170,1994-02-28 10:23:00
5:00 AM,19.9,16.0,85,30.45,10.5,South,5.8,-,N/A,Fog-Snow,Light Snow,170,1994-02-28 11:00:00
6:00 AM,19.9,17.1,89,30.44,10.5,SSE,8.1,-,N/A,Fog-Snow,Light Snow,160,1994-02-28 12:00:00
6:18 AM,-9999,-9999,N/A,30.40,3.0,SE,6.9,-,N/A,Fog,Unknown,140,1994-02-28 12:18:00
7:00 AM,19.9,18.0,92,30.43,10.5,SE,5.8,-,N/A,Fog-Snow,Light Snow,130,1994-02-28 13:00:00
8:00 AM,21.9,19.0,89,30.43,10.5,SE,6.9,-,0.01,Fog-Snow,Light Snow,140,1994-02-28 14:00:00
9:00 AM,24.1,19.9,84,30.43,10.5,SE,6.9,-,0.01,Fog-Snow,Light Snow,140,1994-02-28 15:00:00
9:20 AM,-9999,-9999,N/A,30.38,2.0,SE,5.8,-,N/A,Fog,Unknown,140,1994-02-28 15:20:00
10:00 AM,26.1,21.9,84,30.41,2.0,SSE,6.9,-,N/A,Fog-Snow,Light Snow,150,1994-02-28 16:00:00
10:07 AM,-9999,-9999,N/A,30.38,3.0,SE,4.6,-,N/A,Fog,Unknown,140,1994-02-28 16:07:00
10:26 AM,-9999,-9999,N/A,30.38,3.0,SSE,5.8,-,N/A,,Drizzle,150,1994-02-28 16:26:00
11:00 AM,28.9,23.0,78,30.41,3.0,SSE,4.6,-,N/A,Snow,Light Snow,160,1994-02-28 17:00:00
11:19 AM,-9999,-9999,N/A,30.38,3.0,South,6.9,-,N/A,,Unknown,170,1994-02-28 17:19:00
11:43 AM,-9999,-9999,N/A,30.38,4.0,South,6.9,-,N/A,,Unknown,190,1994-02-28 17:43:00
12:00 PM,28.0,21.9,78,30.42,4.0,South,8.1,-,N/A,Snow,Light Snow,170,1994-02-28 18:00:00
12:11 PM,-9999,-9999,N/A,30.38,10.5,South,9.2,-,N/A,,Unknown,190,1994-02-28 18:11:00
12:22 PM,-9999,-9999,N/A,30.37,10.5,South,9.2,-,N/A,,Unknown,190,1994-02-28 18:22:00
12:32 PM,-9999,-9999,N/A,30.37,10.5,South,9.2,-,N/A,,Unknown,180,1994-02-28 18:32:00
1:00 PM,30.0,23.0,75,30.39,10.5,South,9.2,-,N/A,Snow,Light Snow,190,1994-02-28 19:00:00
1:22 PM,-9999,-9999,N/A,30.34,10.5,South,9.2,-,N/A,,Unknown,180,1994-02-28 19:22:00
1:37 PM,-9999,-9999,N/A,30.34,4.0,South,5.8,-,N/A,,Unknown,190,1994-02-28 19:37:00
2:00 PM,30.9,24.1,76,30.36,4.0,South,5.8,-,N/A,Snow,Light Snow,190,1994-02-28 20:00:00
3:00 PM,32.0,23.0,69,30.35,6.0,SSE,3.5,-,N/A,Snow,Light Snow,160,1994-02-28 21:00:00
3:42 PM,-9999,-9999,N/A,30.32,5.0,NNE,5.8,-,N/A,,Unknown,20,1994-02-28 21:42:00
4:00 PM,30.9,23.0,72,30.35,10.5,North,6.9,-,N/A,Snow,Light Snow,360,1994-02-28 22:00:00
4:03 PM,-9999,-9999,N/A,30.32,2.0,NNE,5.8,-,N/A,,Unknown,20,1994-02-28 22:03:00
4:08 PM,-9999,-9999,N/A,30.33,5.5,North,4.6,-,N/A,,Unknown,10,1994-02-28 22:08:00
4:30 PM,-9999,-9999,N/A,30.32,2.0,NE,4.6,-,N/A,,Unknown,40,1994-02-28 22:30:00
4:42 PM,-9999,-9999,N/A,30.32,2.0,NE,8.1,-,N/A,,Unknown,50,1994-02-28 22:42:00
5:00 PM,30.0,26.1,85,30.35,2.0,ESE,4.6,-,N/A,Snow,Light Snow,120,1994-02-28 23:00:00
5:10 PM,-9999,-9999,N/A,30.32,3.0,East,6.9,-,N/A,,Unknown,80,1994-02-28 23:10:00
5:19 PM,-9999,-9999,N/A,30.32,3.0,ENE,8.1,-,N/A,,Unknown,70,1994-02-28 23:19:00
5:37 PM,-9999,-9999,N/A,30.32,4.0,ENE,5.8,-,N/A,,Unknown,60,1994-02-28 23:37:00
6:00 PM,30.0,26.1,85,30.35,4.0,NE,10.4,-,0.01,Snow,Light Snow,50,1994-03-01 00:00:00
6:18 PM,-9999,-9999,N/A,30.34,4.0,ENE,9.2,-,N/A,,Unknown,70,1994-03-01 00:18:00
7:00 PM,28.9,26.1,89,30.37,5.0,ENE,5.8,-,N/A,Snow,Light Snow,70,1994-03-01 01:00:00
8:00 PM,28.9,26.1,89,30.36,7.0,East,9.2,-,N/A,,Overcast,80,1994-03-01 02:00:00
8:03 PM,-9999,-9999,N/A,30.33,7.0,East,9.2,-,N/A,,Overcast,90,1994-03-01 02:03:00
8:36 PM,-9999,-9999,N/A,30.33,6.0,ENE,8.1,-,N/A,Fog,Fog,70,1994-03-01 02:36:00
9:00 PM,28.0,25.0,88,30.36,6.0,ENE,9.2,-,N/A,Fog,Fog,70,1994-03-01 03:00:00
10:00 PM,28.0,25.0,88,30.36,6.0,East,9.2,-,N/A,Fog,Fog,80,1994-03-01 04:00:00
11:00 PM,28.0,25.0,88,30.37,6.0,NE,6.9,-,N/A,Fog,Fog,40,1994-03-01 05:00:00
